SENTINEL-6              
1 46984U 20086A   23344.81941488 -.00000052  00000+0  40350-4 0  9999
2 46984  66.0410 244.5873 0007746 269.6033  90.4094 12.80928644142700
